H1 CPF  1  DLR 2021 07 04 10  6852 technosat            
H2  1704205 6203    42829 2021 07 04 00 00 00 2021 07 11 00 00 00    60 1 1  0 0 0
H9
10 0 59405  36000.000000  0        754311.181      -1200507.381       6807548.023
10 0 59405  36060.000000  0        320588.763      -1063541.982       6864334.474
10 0 59405  36120.000000  0       -113252.865       -918287.240       6891910.099
10 0 59405  36180.000000  0       -545311.136       -765364.526       6890160.584
10 0 59405  36240.000000  0       -973697.019       -605444.045       6859096.035
10 0 59405  36300.000000  0      -1396543.355       -439241.843       6798850.873
10 0 59405  36360.000000  0      -1812013.030       -267516.572       6709683.216
10 0 59405  36420.000000  0      -2218306.989        -91066.010       6591973.833
10 0 59405  36480.000000  0      -2613672.123         89276.670       6446224.580
10 0 59405  36540.000000  0      -2996408.915        272646.839       6273056.316
10 0 59405  36600.000000  0      -3364878.867        458152.538       6073206.373
10 0 59405  36660.000000  0      -3717511.691        644878.810       5847525.520
10 0 59405  36720.000000  0      -4052812.186        831892.171       5596974.381
10 0 59405  36780.000000  0      -4369366.750       1018245.247       5322619.433
10 0 59405  36840.000000  0      -4665849.543       1202981.565       5025628.536
10 0 59405  36900.000000  0      -4941028.282       1385140.440       4707266.001
10 0 59405  36960.000000  0      -5193769.578       1563761.912       4368887.172
10 0 59405  37020.000000  0      -5423043.774       1737891.741       4011932.637
10 0 59405  37080.000000  0      -5627929.320       1906586.437       3637922.064
10 0 59405  37140.000000  0      -5807616.657       2068918.269       3248447.678
10 0 59405  37200.000000  0      -5961411.582       2223980.253       2845167.394
10 0 59405  37260.000000  0      -6088738.070       2370891.072       2429797.638
10 0 59405  37320.000000  0      -6189140.548       2508799.918       2004105.901
10 0 59405  37380.000000  0      -6262285.605       2636891.230       1569902.989
10 0 59405  37440.000000  0      -6307963.055       2754389.263       1129035.044
10 0 59405  37500.000000  0      -6326086.335       2860562.457        683375.434
10 0 59405  37560.000000  0      -6316692.377       2954727.605        234816.602
10 0 59405  37620.000000  0      -6279940.894       3036253.811       -214738.244
10 0 59405  37680.000000  0      -6216112.993       3104566.165       -663383.456
10 0 59405  37740.000000  0      -6125609.274       3159149.125      -1109219.205
10 0 59405  37800.000000  0      -6008947.371       3199549.632      -1550359.733
10 0 59405  37860.000000  0      -5866758.911       3225379.959      -1984941.552
10 0 59405  37920.000000  0      -5699785.842       3236320.148      -2411131.475
10 0 59405  37980.000000  0      -5508876.334       3232120.100      -2827134.356
10 0 59405  38040.000000  0      -5294980.254       3212601.342      -3231200.673
10 0 59405  38100.000000  0      -5059144.145       3177658.441      -3621633.867
10 0 59405  38160.000000  0      -4802505.779       3127260.034      -3996797.312
10 0 59405  38220.000000  0      -4526288.424       3061449.515      -4355120.971
10 0 59405  38280.000000  0      -4231794.778       2980345.339      -4695107.756
10 0 59405  38340.000000  0      -3920400.575       2884140.958      -5015339.487
10 0 59405  38400.000000  0      -3593547.962       2773104.432      -5314482.408
10 0 59405  38460.000000  0      -3252738.764       2647577.699      -5591292.339
10 0 59405  38520.000000  0      -2899527.555       2507975.522      -5844619.522
10 0 59405  38580.000000  0      -2535514.507       2354784.092      -6073413.065
10 0 59405  38640.000000  0      -2162338.088       2188559.270      -6276724.925
10 0 59405  38700.000000  0      -1781667.707       2009924.487      -6453713.372
10 0 59405  38760.000000  0      -1395196.407       1819568.405      -6603646.030
10 0 59405  38820.000000  0      -1004633.548       1618242.301      -6725902.613
10 0 59405  38880.000000  0       -611697.400       1406757.096      -6819977.215
10 0 59405  38940.000000  0       -218107.824       1185980.151      -6885480.049
10 0 59405  39000.000000  0        174420.885        956831.854      -6922138.898
10 0 59405  39060.000000  0        564187.208        720281.931      -6929800.263
10 0 59405  39120.000000  0        949509.626        477345.464      -6908430.018
10 0 59405  39180.000000  0       1328733.679        229078.659      -6858113.503
10 0 59405  39240.000000  0       1700238.820        -23425.580      -6779055.205
10 0 59405  39300.000000  0       2062445.080       -279042.259      -6671578.058
10 0 59405  39360.000000  0       2413819.603       -536619.095      -6536122.417
10 0 59405  39420.000000  0       2752883.095       -794981.555      -6373244.522
10 0 59405  39480.000000  0       3078215.940      -1052938.020      -6183614.435
10 0 59405  39540.000000  0       3388464.028      -1309285.034      -5968013.659
10 0 59405  39600.000000  0       3682344.438      -1562812.749      -5727332.432
10 0 59405  39660.000000  0       3958650.903      -1812310.561      -5462566.484
10 0 59405  39720.000000  0       4216258.900      -2056572.810      -5174813.292
10 0 59405  39780.000000  0       4454130.402      -2294404.543      -4865267.942
10 0 59405  39840.000000  0       4671318.279      -2524627.302      -4535218.554
10 0 59405  39900.000000  0       4866970.311      -2746084.930      -4186041.307
10 0 59405  39960.000000  0       5040332.839      -2957649.358      -3819195.065
10 0 59405  40020.000000  0       5190754.011      -3158226.357      -3436215.585
10 0 59405  40080.000000  0       5317686.595      -3346761.216      -3038709.331
10 0 59405  40140.000000  0       5420690.326      -3522244.321      -2628346.884
10 0 59405  40200.000000  0       5499433.697      -3683716.558      -2206856.000
10 0 59405  40260.000000  0       5553695.284      -3830274.548      -1776014.452
10 0 59405  40320.000000  0       5583364.599      -3961075.726      -1337642.507
10 0 59405  40380.000000  0       5588442.344      -4075343.130       -893595.123
10 0 59405  40440.000000  0       5569040.150      -4172369.903       -445754.004
10 0 59405  40500.000000  0       5525379.841      -4251523.548          3980.555
10 0 59405  40560.000000  0       5457792.055      -4312249.815        453698.031
10 0 59405  40620.000000  0       5366714.301      -4354076.208        901486.046
10 0 59405  40680.000000  0       5252688.533      -4376615.105       1345438.819
10 0 59405  40740.000000  0       5116358.182      -4379566.430       1783665.614
10 0 59405  40800.000000  0       4958464.681      -4362719.860       2214299.106
10 0 59405  40860.000000  0       4779843.523      -4325956.611       2635503.603
10 0 59405  40920.000000  0       4581419.876      -4269250.781       3045483.151
10 0 59405  40980.000000  0       4364203.795      -4192670.226       3442489.451
10 0 59405  41040.000000  0       4129285.026      -4096376.998       3824829.570
10 0 59405  41100.000000  0       3877827.394      -3980627.301       4190873.399
10 0 59405  41160.000000  0       3611062.840      -3845770.916       4539060.795
10 0 59405  41220.000000  0       3330285.180      -3692250.119       4867908.311
10 0 59405  41280.000000  0       3036843.681      -3520598.198       5176015.541
10 0 59405  41340.000000  0       2732136.446      -3331437.564       5462071.168
10 0 59405  41400.000000  0       2417603.523      -3125477.329       5724858.587
10 0 59405  41460.000000  0       2094719.877      -2903510.486       5963261.006
10 0 59405  41520.000000  0       1764988.290      -2666410.703       6176266.073
10 0 59405  41580.000000  0       1429932.239      -2415128.745       6362970.058
10 0 59405  41640.000000  0       1091088.720      -2150688.523       6522581.595
10 0 59405  41700.000000  0        750001.043      -1874182.766       6654424.907
10 0 59405  41760.000000  0        408211.724      -1586768.391       6757942.501
10 0 59405  41820.000000  0         67255.455      -1289661.553       6832697.441
10 0 59405  41880.000000  0       -271347.870       -984132.336       6878375.064
10 0 59405  41940.000000  0       -606099.947       -671499.262       6894784.169
10 0 59405  42000.000000  0       -935530.736       -353123.544       6881857.794
10 0 59405  42060.000000  0      -1258204.990        -30403.071       6839653.430
10 0 59405  42120.000000  0      -1572728.531        295233.784       6768352.737
10 0 59405  42180.000000  0      -1877754.310        622334.551       6668260.757
10 0 59405  42240.000000  0      -2171988.245        949429.177       6539804.645
10 0 59405  42300.000000  0      -2454194.773       1275036.682       6383531.866
10 0 59405  42360.000000  0      -2723202.088       1597671.908       6200107.931
10 0 59405  42420.000000  0      -2977907.092       1915852.342       5990313.670
10 0 59405  42480.000000  0      -3217280.029       2228105.014       5755042.037
10 0 59405  42540.000000  0      -3440368.792       2532973.428       5495294.385
10 0 59405  42600.000000  0      -3646302.819       2829024.463       5212176.242
10 0 59405  42660.000000  0      -3834296.604       3114855.187       4906892.650
10 0 59405  42720.000000  0      -4003652.808       3389099.616       4580743.102
10 0 59405  42780.000000  0      -4153764.963       3650435.383       4235116.019
10 0 59405  42840.000000  0      -4284119.710       3897590.220       3871482.835
10 0 59405  42900.000000  0      -4394298.624       4129348.301       3491391.687
10 0 59405  42960.000000  0      -4483979.535       4344556.321       3096460.702
10 0 59405  43020.000000  0      -4552937.324       4542129.347       2688370.992
10 0 59405  43080.000000  0      -4601044.272       4721056.372       2268859.334
10 0 59405  43140.000000  0      -4628269.938       4880405.490       1839710.574
99
